[{"OBJECT_NAME":"TRANSPORTER-10 OBJECT AW","OBJECT_ID":"2024-043AW","EPOCH":"2026-03-09T22:04:49.515456","MEAN_MOTION":15.70494371,"ECCENTRICITY":0.00039773,"INCLINATION":97.534,"RA_OF_ASC_NODE":220.1774,"ARG_OF_PERICENTER":196.6835,"MEAN_ANOMALY":163.4297,"EPHEMERIS_TYPE":0,"CLASSIFICATION_TYPE":"U","NORAD_CAT_ID":59142,"ELEMENT_SET_NO":999,"REV_AT_EPOCH":11287,"BSTAR":0.00092189633,"MEAN_MOTION_DOT":0.00114165,"MEAN_MOTION_DDOT":0},{"OBJECT_NAME":"STARLINK-11341 [DTC]","OBJECT_ID":"2024-195K","EPOCH":"2026-03-09T07:03:32.831136","MEAN_MOTION":15.69703073,"ECCENTRICITY":0.00017492,"INCLINATION":53.1583,"RA_OF_ASC_NODE":28.0483,"ARG_OF_PERICENTER":127.4696,"MEAN_ANOMALY":232.6482,"EPHEMERIS_TYPE":0,"CLASSIFICATION_TYPE":"U","NORAD_CAT_ID":61696,"ELEMENT_SET_NO":999,"REV_AT_EPOCH":7897,"BSTAR":-7.294224e-6,"MEAN_MOTION_DOT":-1.473e-5,"MEAN_MOTION_DDOT":0}]
